STARLINK-36865          
1 67930U 26036AC  26066.16670139 -.00093221  00000+0 -44416-3 0  9995
2 67930  42.9994 264.9803 0002101 245.1965 117.2012 15.82051389  3247
STARLINK-36781          
1 67931U 26036AD  26066.16670139 -.00091174  00000+0 -43424-3 0  9999
2 67931  42.9993 264.9909 0001998 276.0772  82.0583 15.82052064  3249
STARLINK-36301          
1 67932U 26037A   26066.16670139 -.01535755  00000+0 -64320-2 0  9997
2 67932  42.9997 214.0760 0001411 268.2322   1.7623 15.87235450  2709
STARLINK-36852          
1 67933U 26037B   26066.16670139 -.01516089  00000+0 -62854-2 0  9997
2 67933  42.9999 214.0680 0001407 269.8518   3.3064 15.87403988  2791
STARLINK-36861          
1 67934U 26037C   26066.16670139 -.01523290  00000+0 -62824-2 0  9997
2 67934  42.9998 214.0590 0001491 269.9712   6.8128 15.87519619  2799
STARLINK-36860          
1 67935U 26037D   26066.16670139 -.01528227  00000+0 -62726-2 0  9994
2 67935  42.9997 214.0501 0001538 272.0549   8.4184 15.87623346  2799
STARLINK-36848          
1 67936U 26037E   26066.16670139 -.01533359  00000+0 -62246-2 0  9994
2 67936  42.9997 214.0313 0001363 269.3647  18.2662 15.87853509  2791
STARLINK-36370          
1 67937U 26037F   26066.16670139 -.01549280  00000+0 -63359-2 0  9991
2 67937  43.0000 214.0409 0001625 270.5822  13.6142 15.87731433  2798
STARLINK-36371          
1 67938U 26037G   26066.16670139 -.01546482  00000+0 -62348-2 0  9990
2 67938  42.9998 214.0228 0001556 270.7111  20.1902 15.88010753  2791
STARLINK-36246          
1 67939U 26037H   26066.16670139 -.01544574  00000+0 -61796-2 0  9997
2 67939  42.9998 214.0152 0001493 267.9963  26.1519 15.88159689  2704
STARLINK-36907          
1 67940U 26037J   26066.16670139 -.01528979  00000+0 -59979-2 0  9990
2 67940  42.9998 213.9883 0001389 268.1161  36.2759 15.88522765  2798
STARLINK-36927          
1 67941U 26037K   26066.16670139 -.01493453  00000+0 -59005-2 0  9999
2 67941  42.9997 213.9716 0001528 270.4464  40.5469 15.88783613  2797
STARLINK-36914          
1 67942U 26037L   26066.16670139 -.01534869  00000+0 -61121-2 0  9999
2 67942  42.9998 214.0052 0001398 270.0007  27.9265 15.88236547  2790
STARLINK-36851          
1 67943U 26037M   26066.16670139 -.01528796  00000+0 -60418-2 0  9990
2 67943  42.9998 213.9970 0001476 271.3754  29.8103 15.88375393  2793
STARLINK-36892          
1 67944U 26037N   26066.16670139 -.01534213  00000+0 -59796-2 0  9999
2 67944  42.9997 213.9807 0001530 272.0392  35.6480 15.88657559  2799
STARLINK-36908          
1 67945U 26037P   26066.16670139 -.01534537  00000+0 -59187-2 0  9993
2 67945  42.9998 213.9621 0001626 271.1970  43.6487 15.88862382  2791
