[{"OBJECT_NAME":"STARLINK-36865","OBJECT_ID":"2026-036AC","EPOCH":"2026-03-07T04:00:03.000096","MEAN_MOTION":15.82051389,"ECCENTRICITY":0.0002101,"INCLINATION":42.9994,"RA_OF_ASC_NODE":264.9803,"ARG_OF_PERICENTER":245.1965,"MEAN_ANOMALY":117.2012,"EPHEMERIS_TYPE":0,"CLASSIFICATION_TYPE":"U","NORAD_CAT_ID":67930,"ELEMENT_SET_NO":999,"REV_AT_EPOCH":324,"BSTAR":-0.00044416,"MEAN_MOTION_DOT":-0.00093221,"MEAN_MOTION_DDOT":0},{"OBJECT_NAME":"STARLINK-36781","OBJECT_ID":"2026-036AD","EPOCH":"2026-03-07T04:00:03.000096","MEAN_MOTION":15.82052064,"ECCENTRICITY":0.0001998,"INCLINATION":42.9993,"RA_OF_ASC_NODE":264.9909,"ARG_OF_PERICENTER":276.0772,"MEAN_ANOMALY":82.0583,"EPHEMERIS_TYPE":0,"CLASSIFICATION_TYPE":"U","NORAD_CAT_ID":67931,"ELEMENT_SET_NO":999,"REV_AT_EPOCH":324,"BSTAR":-0.00043424,"MEAN_MOTION_DOT":-0.00091174,"MEAN_MOTION_DDOT":0},{"OBJECT_NAME":"STARLINK-36301","OBJECT_ID":"2026-037A","EPOCH":"2026-03-07T04:00:03.000096","MEAN_MOTION":15.8723545,"ECCENTRICITY":0.0001411,"INCLINATION":42.9997,"RA_OF_ASC_NODE":214.076,"ARG_OF_PERICENTER":268.2322,"MEAN_ANOMALY":1.7623,"EPHEMERIS_TYPE":0,"CLASSIFICATION_TYPE":"U","NORAD_CAT_ID":67932,"ELEMENT_SET_NO":999,"REV_AT_EPOCH":270,"BSTAR":-0.006432,"MEAN_MOTION_DOT":-0.01535755,"MEAN_MOTION_DDOT":0},{"OBJECT_NAME":"STARLINK-36852","OBJECT_ID":"2026-037B","EPOCH":"2026-03-07T04:00:03.000096","MEAN_MOTION":15.87403988,"ECCENTRICITY":0.0001407,"INCLINATION":42.9999,"RA_OF_ASC_NODE":214.068,"ARG_OF_PERICENTER":269.8518,"MEAN_ANOMALY":3.3064,"EPHEMERIS_TYPE":0,"CLASSIFICATION_TYPE":"U","NORAD_CAT_ID":67933,"ELEMENT_SET_NO":999,"REV_AT_EPOCH":279,"BSTAR":-0.0062854,"MEAN_MOTION_DOT":-0.01516089,"MEAN_MOTION_DDOT":0},{"OBJECT_NAME":"STARLINK-36861","OBJECT_ID":"2026-037C","EPOCH":"2026-03-07T04:00:03.000096","MEAN_MOTION":15.87519619,"ECCENTRICITY":0.0001491,"INCLINATION":42.9998,"RA_OF_ASC_NODE":214.059,"ARG_OF_PERICENTER":269.9712,"MEAN_ANOMALY":6.8128,"EPHEMERIS_TYPE":0,"CLASSIFICATION_TYPE":"U","NORAD_CAT_ID":67934,"ELEMENT_SET_NO":999,"REV_AT_EPOCH":279,"BSTAR":-0.0062824,"MEAN_MOTION_DOT":-0.0152329,"MEAN_MOTION_DDOT":0},{"OBJECT_NAME":"STARLINK-36860","OBJECT_ID":"2026-037D","EPOCH":"2026-03-07T04:00:03.000096","MEAN_MOTION":15.87623346,"ECCENTRICITY":0.0001538,"INCLINATION":42.9997,"RA_OF_ASC_NODE":214.0501,"ARG_OF_PERICENTER":272.0549,"MEAN_ANOMALY":8.4184,"EPHEMERIS_TYPE":0,"CLASSIFICATION_TYPE":"U","NORAD_CAT_ID":67935,"ELEMENT_SET_NO":999,"REV_AT_EPOCH":279,"BSTAR":-0.0062726,"MEAN_MOTION_DOT":-0.01528227,"MEAN_MOTION_DDOT":0},{"OBJECT_NAME":"STARLINK-36848","OBJECT_ID":"2026-037E","EPOCH":"2026-03-07T04:00:03.000096","MEAN_MOTION":15.87853509,"ECCENTRICITY":0.0001363,"INCLINATION":42.9997,"RA_OF_ASC_NODE":214.0313,"ARG_OF_PERICENTER":269.3647,"MEAN_ANOMALY":18.2662,"EPHEMERIS_TYPE":0,"CLASSIFICATION_TYPE":"U","NORAD_CAT_ID":67936,"ELEMENT_SET_NO":999,"REV_AT_EPOCH":279,"BSTAR":-0.0062246,"MEAN_MOTION_DOT":-0.01533359,"MEAN_MOTION_DDOT":0},{"OBJECT_NAME":"STARLINK-36370","OBJECT_ID":"2026-037F","EPOCH":"2026-03-07T04:00:03.000096","MEAN_MOTION":15.87731433,"ECCENTRICITY":0.0001625,"INCLINATION":43,"RA_OF_ASC_NODE":214.0409,"ARG_OF_PERICENTER":270.5822,"MEAN_ANOMALY":13.6142,"EPHEMERIS_TYPE":0,"CLASSIFICATION_TYPE":"U","NORAD_CAT_ID":67937,"ELEMENT_SET_NO":999,"REV_AT_EPOCH":279,"BSTAR":-0.0063359,"MEAN_MOTION_DOT":-0.0154928,"MEAN_MOTION_DDOT":0},{"OBJECT_NAME":"STARLINK-36371","OBJECT_ID":"2026-037G","EPOCH":"2026-03-07T04:00:03.000096","MEAN_MOTION":15.88010753,"ECCENTRICITY":0.0001556,"INCLINATION":42.9998,"RA_OF_ASC_NODE":214.0228,"ARG_OF_PERICENTER":270.7111,"MEAN_ANOMALY":20.1902,"EPHEMERIS_TYPE":0,"CLASSIFICATION_TYPE":"U","NORAD_CAT_ID":67938,"ELEMENT_SET_NO":999,"REV_AT_EPOCH":279,"BSTAR":-0.0062348,"MEAN_MOTION_DOT":-0.01546482,"MEAN_MOTION_DDOT":0},{"OBJECT_NAME":"STARLINK-36246","OBJECT_ID":"2026-037H","EPOCH":"2026-03-07T04:00:03.000096","MEAN_MOTION":15.88159689,"ECCENTRICITY":0.0001493,"INCLINATION":42.9998,"RA_OF_ASC_NODE":214.0152,"ARG_OF_PERICENTER":267.9963,"MEAN_ANOMALY":26.1519,"EPHEMERIS_TYPE":0,"CLASSIFICATION_TYPE":"U","NORAD_CAT_ID":67939,"ELEMENT_SET_NO":999,"REV_AT_EPOCH":270,"BSTAR":-0.0061796,"MEAN_MOTION_DOT":-0.01544574,"MEAN_MOTION_DDOT":0},{"OBJECT_NAME":"STARLINK-36907","OBJECT_ID":"2026-037J","EPOCH":"2026-03-07T04:00:03.000096","MEAN_MOTION":15.88522765,"ECCENTRICITY":0.0001389,"INCLINATION":42.9998,"RA_OF_ASC_NODE":213.9883,"ARG_OF_PERICENTER":268.1161,"MEAN_ANOMALY":36.2759,"EPHEMERIS_TYPE":0,"CLASSIFICATION_TYPE":"U","NORAD_CAT_ID":67940,"ELEMENT_SET_NO":999,"REV_AT_EPOCH":279,"BSTAR":-0.0059979,"MEAN_MOTION_DOT":-0.01528979,"MEAN_MOTION_DDOT":0},{"OBJECT_NAME":"STARLINK-36927","OBJECT_ID":"2026-037K","EPOCH":"2026-03-07T04:00:03.000096","MEAN_MOTION":15.88783613,"ECCENTRICITY":0.0001528,"INCLINATION":42.9997,"RA_OF_ASC_NODE":213.9716,"ARG_OF_PERICENTER":270.4464,"MEAN_ANOMALY":40.5469,"EPHEMERIS_TYPE":0,"CLASSIFICATION_TYPE":"U","NORAD_CAT_ID":67941,"ELEMENT_SET_NO":999,"REV_AT_EPOCH":279,"BSTAR":-0.0059005,"MEAN_MOTION_DOT":-0.01493453,"MEAN_MOTION_DDOT":0},{"OBJECT_NAME":"STARLINK-36914","OBJECT_ID":"2026-037L","EPOCH":"2026-03-07T04:00:03.000096","MEAN_MOTION":15.88236547,"ECCENTRICITY":0.0001398,"INCLINATION":42.9998,"RA_OF_ASC_NODE":214.0052,"ARG_OF_PERICENTER":270.0007,"MEAN_ANOMALY":27.9265,"EPHEMERIS_TYPE":0,"CLASSIFICATION_TYPE":"U","NORAD_CAT_ID":67942,"ELEMENT_SET_NO":999,"REV_AT_EPOCH":279,"BSTAR":-0.0061121,"MEAN_MOTION_DOT":-0.01534869,"MEAN_MOTION_DDOT":0},{"OBJECT_NAME":"STARLINK-36851","OBJECT_ID":"2026-037M","EPOCH":"2026-03-07T04:00:03.000096","MEAN_MOTION":15.88375393,"ECCENTRICITY":0.0001476,"INCLINATION":42.9998,"RA_OF_ASC_NODE":213.997,"ARG_OF_PERICENTER":271.3754,"MEAN_ANOMALY":29.8103,"EPHEMERIS_TYPE":0,"CLASSIFICATION_TYPE":"U","NORAD_CAT_ID":67943,"ELEMENT_SET_NO":999,"REV_AT_EPOCH":279,"BSTAR":-0.0060418,"MEAN_MOTION_DOT":-0.01528796,"MEAN_MOTION_DDOT":0},{"OBJECT_NAME":"STARLINK-36892","OBJECT_ID":"2026-037N","EPOCH":"2026-03-07T04:00:03.000096","MEAN_MOTION":15.88657559,"ECCENTRICITY":0.000153,"INCLINATION":42.9997,"RA_OF_ASC_NODE":213.9807,"ARG_OF_PERICENTER":272.0392,"MEAN_ANOMALY":35.648,"EPHEMERIS_TYPE":0,"CLASSIFICATION_TYPE":"U","NORAD_CAT_ID":67944,"ELEMENT_SET_NO":999,"REV_AT_EPOCH":279,"BSTAR":-0.0059796,"MEAN_MOTION_DOT":-0.01534213,"MEAN_MOTION_DDOT":0},{"OBJECT_NAME":"STARLINK-36908","OBJECT_ID":"2026-037P","EPOCH":"2026-03-07T04:00:03.000096","MEAN_MOTION":15.88862382,"ECCENTRICITY":0.0001626,"INCLINATION":42.9998,"RA_OF_ASC_NODE":213.9621,"ARG_OF_PERICENTER":271.197,"MEAN_ANOMALY":43.6487,"EPHEMERIS_TYPE":0,"CLASSIFICATION_TYPE":"U","NORAD_CAT_ID":67945,"ELEMENT_SET_NO":999,"REV_AT_EPOCH":279,"BSTAR":-0.0059187,"MEAN_MOTION_DOT":-0.01534537,"MEAN_MOTION_DDOT":0}]
